1 27424U 02022A   11032.46495338 +.00000127 +00000-0 +38308-4 0 08618
2 27424 098.2133 335.2286 0001590 087.6427 272.4937 14.57108748465302